{
  "norad_id": 65478,
  "name": "STARLINK-35093",
  "history": [
    {
      "epoch": "2026-03-28T11:43:50.102112Z",
      "apogee_km": 475.92735728965727,
      "perigee_km": 474.4788353269014,
      "latitude_deg": -2.6021788198483993e-05,
      "longitude_deg": 168.8629280846625,
      "height_km": 476.03583829685704,
      "semi_major_axis_km": 6853.340096308279,
      "eccentricity": 0.00010568,
      "inclination_deg": 53.1614,
      "raan_deg": 170.7302,
      "arg_perigee_deg": 84.7886,
      "mean_anomaly_deg": 275.3235,
      "mean_motion_rev_day": 15.3020401
    },
    {
      "epoch": "2026-03-30T04:29:13.224768Z",
      "apogee_km": 476.16503799424754,
      "perigee_km": 474.2802270281145,
      "latitude_deg": -2.1563973525584118e-05,
      "longitude_deg": -92.04401928432307,
      "height_km": 476.10069613528697,
      "semi_major_axis_km": 6853.35963251118,
      "eccentricity": 0.00013751,
      "inclination_deg": 53.1611,
      "raan_deg": 162.8434,
      "arg_perigee_deg": 88.7847,
      "mean_anomaly_deg": 271.3311,
      "mean_motion_rev_day": 15.30197467
    },
    {
      "epoch": "2026-03-30T12:19:29.290944Z",
      "apogee_km": 475.85823611325486,
      "perigee_km": 474.51375120835746,
      "latitude_deg": -1.6447942499252678e-05,
      "longitude_deg": 148.55095565375655,
      "height_km": 476.1717791693328,
      "semi_major_axis_km": 6853.322993660806,
      "eccentricity": 9.809e-05,
      "inclination_deg": 53.1604,
      "raan_deg": 161.3272,
      "arg_perigee_deg": 97.4584,
      "mean_anomaly_deg": 262.6528,
      "mean_motion_rev_day": 15.30209738
    },
    {
      "epoch": "2026-03-30T21:43:48.462528Z",
      "apogee_km": 475.9963058878984,
      "perigee_km": 474.3970119452524,
      "latitude_deg": 4.6491538456014123e-05,
      "longitude_deg": 5.2638584089791465,
      "height_km": 476.09341630889827,
      "semi_major_axis_km": 6853.333658916575,
      "eccentricity": 0.00011668,
      "inclination_deg": 53.1596,
      "raan_deg": 159.5062,
      "arg_perigee_deg": 89.8989,
      "mean_anomaly_deg": 270.2146,
      "mean_motion_rev_day": 15.30206166
    },
    {
      "epoch": "2026-03-31T13:24:19.888128Z",
      "apogee_km": 476.18148113621646,
      "perigee_km": 474.1200121820211,
      "latitude_deg": -2.6491418269274777e-05,
      "longitude_deg": 126.4562992873525,
      "height_km": 475.95505354950654,
      "semi_major_axis_km": 6853.287746659118,
      "eccentricity": 0.0001504,
      "inclination_deg": 53.159,
      "raan_deg": 156.4734,
      "arg_perigee_deg": 84.8033,
      "mean_anomaly_deg": 275.3139,
      "mean_motion_rev_day": 15.30221543
    },
    {
      "epoch": "2026-04-01T20:45:25.051392Z",
      "apogee_km": 475.9670801080265,
      "perigee_km": 474.525128302902,
      "latitude_deg": -4.927942678064484e-06,
      "longitude_deg": 8.82914578667014,
      "height_km": 476.1835403224875,
      "semi_major_axis_km": 6853.383104205464,
      "eccentricity": 0.0001052,
      "inclination_deg": 53.1573,
      "raan_deg": 150.4053,
      "arg_perigee_deg": 93.1293,
      "mean_anomaly_deg": 266.9828,
      "mean_motion_rev_day": 15.30189606
    },
    {
      "epoch": "2026-04-02T20:16:12.195840Z",
      "apogee_km": 475.80457452396604,
      "perigee_km": 474.31468957615925,
      "latitude_deg": -2.0286064090460215e-05,
      "longitude_deg": 10.617251372340434,
      "height_km": 476.05340965480417,
      "semi_major_axis_km": 6853.196632050062,
      "eccentricity": 0.0001087,
      "inclination_deg": 53.1567,
      "raan_deg": 145.8555,
      "arg_perigee_deg": 97.3868,
      "mean_anomaly_deg": 262.7256,
      "mean_motion_rev_day": 15.3025206
    },
    {
      "epoch": "2026-04-02T20:16:12.196704Z",
      "apogee_km": 475.80457452396604,
      "perigee_km": 474.31468957615925,
      "latitude_deg": -2.0286063698429715e-05,
      "longitude_deg": 10.617347762482458,
      "height_km": 476.0534096548062,
      "semi_major_axis_km": 6853.196632050062,
      "eccentricity": 0.0001087,
      "inclination_deg": 53.1567,
      "raan_deg": 145.8556,
      "arg_perigee_deg": 97.3868,
      "mean_anomaly_deg": 262.7256,
      "mean_motion_rev_day": 15.3025206
    }
  ]
}